{
  "norad_id": 48676,
  "name": "STARLINK-2746",
  "history": [
    {
      "epoch": "2026-04-11T00:43:59.424960Z",
      "apogee_km": 476.0931873032632,
      "perigee_km": 474.2718491081041,
      "latitude_deg": 7.457357152145799e-06,
      "longitude_deg": 113.37001388700611,
      "height_km": 476.049221230035,
      "semi_major_axis_km": 6853.319518205683,
      "eccentricity": 0.00013288,
      "inclination_deg": 53.1609,
      "raan_deg": 323.6235,
      "arg_perigee_deg": 88.0245,
      "mean_anomaly_deg": 272.0908,
      "mean_motion_rev_day": 15.30210902
    },
    {
      "epoch": "2026-04-13T06:00:02.000160Z",
      "apogee_km": 476.02635539421954,
      "perigee_km": 474.3523618978552,
      "latitude_deg": -5.459458150020274,
      "longitude_deg": 17.78032470673973,
      "height_km": 476.8499638678244,
      "semi_major_axis_km": 6853.326358646037,
      "eccentricity": 0.00012213,
      "inclination_deg": 53.16,
      "raan_deg": 313.3155,
      "arg_perigee_deg": 75.7915,
      "mean_anomaly_deg": 277.5359,
      "mean_motion_rev_day": 15.30208611
    },
    {
      "epoch": "2026-04-14T19:39:04.289760Z",
      "apogee_km": 476.105906653951,
      "perigee_km": 474.3048482771537,
      "latitude_deg": 4.065557843043423e-05,
      "longitude_deg": 168.26929810507394,
      "height_km": 476.0120939480298,
      "semi_major_axis_km": 6853.342377465552,
      "eccentricity": 0.0001314,
      "inclination_deg": 53.16,
      "raan_deg": 306.0269,
      "arg_perigee_deg": 84.1808,
      "mean_anomaly_deg": 275.9343,
      "mean_motion_rev_day": 15.30203246
    },
    {
      "epoch": "2026-04-15T19:09:53.100000Z",
      "apogee_km": 475.80719744811904,
      "perigee_km": 474.6969484183046,
      "latitude_deg": -2.9053018614235727e-05,
      "longitude_deg": 170.04860451185837,
      "height_km": 476.2713214339058,
      "semi_major_axis_km": 6853.3890729332115,
      "eccentricity": 8.1e-05,
      "inclination_deg": 53.1606,
      "raan_deg": 301.4753,
      "arg_perigee_deg": 102.5338,
      "mean_anomaly_deg": 257.5753,
      "mean_motion_rev_day": 15.30187607
    },
    {
      "epoch": "2026-04-16T06:08:15.131616Z",
      "apogee_km": 476.0199110560534,
      "perigee_km": 474.44226572210664,
      "latitude_deg": -4.572734199714746e-05,
      "longitude_deg": 2.8827582442032567,
      "height_km": 476.15211728140656,
      "semi_major_axis_km": 6853.36808838908,
      "eccentricity": 0.0001151,
      "inclination_deg": 53.1603,
      "raan_deg": 299.3519,
      "arg_perigee_deg": 91.653,
      "mean_anomaly_deg": 268.4602,
      "mean_motion_rev_day": 15.30194635
    },
    {
      "epoch": "2026-04-17T21:19:34.876704Z",
      "apogee_km": 476.0390418036177,
      "perigee_km": 474.42397698069453,
      "latitude_deg": -1.1549262159928898e-05,
      "longitude_deg": 125.85788737384293,
      "height_km": 476.0542612524908,
      "semi_major_axis_km": 6853.368509392156,
      "eccentricity": 0.00011783,
      "inclination_deg": 53.1611,
      "raan_deg": 291.7687,
      "arg_perigee_deg": 84.63,
      "mean_anomaly_deg": 275.4835,
      "mean_motion_rev_day": 15.30194494
    },
    {
      "epoch": "2026-04-18T20:50:22.000416Z",
      "apogee_km": 475.9355585165622,
      "perigee_km": 474.47716704896357,
      "latitude_deg": -2.622963503950651e-05,
      "longitude_deg": 127.64417946801434,
      "height_km": 476.15959397251527,
      "semi_major_axis_km": 6853.343362782763,
      "eccentricity": 0.0001064,
      "inclination_deg": 53.1607,
      "raan_deg": 287.217,
      "arg_perigee_deg": 94.3094,
      "mean_anomaly_deg": 265.8028,
      "mean_motion_rev_day": 15.30202916
    },
    {
      "epoch": "2026-04-19T18:47:07.420128Z",
      "apogee_km": 476.1125704124943,
      "perigee_km": 474.3786646102635,
      "latitude_deg": 4.809324804009281e-05,
      "longitude_deg": 153.30739691802225,
      "height_km": 476.0916683785136,
      "semi_major_axis_km": 6853.382617511379,
      "eccentricity": 0.0001265,
      "inclination_deg": 53.1603,
      "raan_deg": 282.9707,
      "arg_perigee_deg": 86.5576,
      "mean_anomaly_deg": 273.557,
      "mean_motion_rev_day": 15.30189769
    },
    {
      "epoch": "2026-04-20T04:11:26.587392Z",
      "apogee_km": 476.13611078131635,
      "perigee_km": 474.3446379356592,
      "latitude_deg": -1.5767687432486603e-05,
      "longitude_deg": 10.020022138747702,
      "height_km": 476.0837683684476,
      "semi_major_axis_km": 6853.377374358488,
      "eccentricity": 0.0001307,
      "inclination_deg": 53.1601,
      "raan_deg": 281.1495,
      "arg_perigee_deg": 86.5025,
      "mean_anomaly_deg": 273.6125,
      "mean_motion_rev_day": 15.30191525
    },
    {
      "epoch": "2026-04-21T17:48:43.018848Z",
      "apogee_km": 476.24947471057476,
      "perigee_km": 474.18524437747965,
      "latitude_deg": 2.127086487259155e-05,
      "longitude_deg": 156.87223251131573,
      "height_km": 475.77812120639766,
      "semi_major_axis_km": 6853.354359544027,
      "eccentricity": 0.0001506,
      "inclination_deg": 53.1592,
      "raan_deg": 273.8652,
      "arg_perigee_deg": 70.9416,
      "mean_anomaly_deg": 289.1748,
      "mean_motion_rev_day": 15.30199233
    },
    {
      "epoch": "2026-04-22T17:19:30.224640Z",
      "apogee_km": 476.4697479428696,
      "perigee_km": 473.90112269411384,
      "latitude_deg": 1.4625188407521048e-06,
      "longitude_deg": 158.66007529708332,
      "height_km": 475.99962871618044,
      "semi_major_axis_km": 6853.322435318491,
      "eccentricity": 0.0001874,
      "inclination_deg": 53.1587,
      "raan_deg": 269.3154,
      "arg_perigee_deg": 86.2991,
      "mean_anomaly_deg": 273.8224,
      "mean_motion_rev_day": 15.30209925
    }
  ]
}